H1 CPF 01  gfz 2022 09 16 12  7592 tandemx   
H2 1003001  6202 36605    2022 09 16 12 59 42 2022 09 21 00 00 42   120 1 1  0 0 0
H9
10 0 59839  59742.000000  0   -3007098.817   -311359.242  -6196870.483
10 0 59839  59862.000000  0   -2232348.024     58520.141  -6523501.140
10 0 59839  59982.000000  0   -1412581.106    413433.388  -6736310.795
10 0 59839  60102.000000  0    -562330.997    746574.569  -6831638.788
10 0 59839  60222.000000  0     303243.126   1051776.951  -6807845.574
10 0 59839  60342.000000  0    1168618.387   1323623.182  -6665338.044
10 0 59839  60462.000000  0    2018180.510   1557539.320  -6406565.921
10 0 59839  60582.000000  0    2836500.197   1749871.381  -6035984.035
10 0 59839  60702.000000  0    3608609.465   1897941.941  -5559982.769
10 0 59839  60822.000000  0    4320272.674   2000086.582  -4986788.331
10 0 59839  60942.000000  0    4958251.411   2055670.476  -4326332.801
10 0 59839  61062.000000  0    5510556.528   2065083.538  -3590092.002
10 0 59839  61182.000000  0    5966681.165   2029713.926  -2790894.826
10 0 59839  61302.000000  0    6317811.692   1951900.672  -1942706.226
10 0 59839  61422.000000  0    6557009.720   1834866.088  -1060384.223
10 0 59839  61542.000000  0    6679359.525   1682628.308   -159417.485
10 0 59839  61662.000000  0    6682076.650   1499896.054    744353.052
10 0 59839  61782.000000  0    6564573.109   1291949.049   1635019.099
10 0 59839  61902.000000  0    6328482.005   1064506.453   2496893.779
10 0 59839  62022.000000  0    5977634.474    823585.733   3314797.438
10 0 59839  62142.000000  0    5517993.164    575357.209   4074332.199
10 0 59839  62262.000000  0    4957541.740    325997.113   4762139.820
10 0 59839  62382.000000  0    4306137.744     81544.259   5366137.639
10 0 59839  62502.000000  0    3575328.793   -152238.687   5875730.743
10 0 59839  62622.000000  0    2778137.754   -369993.638   6281992.700
10 0 59839  62742.000000  0    1928824.407   -566883.306   6577815.980
10 0 59839  62862.000000  0    1042626.291   -738694.034   6758031.249
10 0 59839  62982.000000  0     135481.726   -881923.110   6819492.882
10 0 59839  63102.000000  0    -776257.673   -993848.354   6761129.137
10 0 59839  63222.000000  0   -1676120.786  -1072579.733   6583958.877
10 0 59839  63342.000000  0   -2547813.026  -1117091.149   6291074.151
10 0 59839  63462.000000  0   -3375509.758  -1127232.216   5887590.298
10 0 59839  63582.000000  0   -4144145.982  -1103720.603   5380564.012
10 0 59839  63702.000000  0   -4839696.082  -1048115.666   4778876.274
10 0 59839  63822.000000  0   -5449437.247   -962772.273   4093081.625
10 0 59839  63942.000000  0   -5962190.506   -850776.040   3335225.901
10 0 59839  64062.000000  0   -6368534.148   -715861.256   2518636.606
10 0 59839  64182.000000  0   -6660987.655   -562313.384   1657688.768
10 0 59839  64302.000000  0   -6834159.364   -394858.173    767546.752
10 0 59839  64422.000000  0   -6884851.556   -218540.620   -136110.565
10 0 59839  64542.000000  0   -6812121.825    -38596.159  -1037374.746
10 0 59839  64662.000000  0   -6617298.169    139682.478  -1920397.109
10 0 59839  64782.000000  0   -6303948.997    311078.510  -2769673.828
10 0 59839  64902.000000  0   -5877810.414    470581.823  -3570324.879
10 0 59839  65022.000000  0   -5346668.110    613514.184  -4308358.259
10 0 59839  65142.000000  0   -4720201.862    735645.047  -4970912.816
10 0 59839  65262.000000  0   -4009795.986    833295.412  -5546476.823
10 0 59839  65382.000000  0   -3228321.934    903427.652  -6025079.024
10 0 59839  65502.000000  0   -2389897.452    943718.977  -6398450.015
10 0 59839  65622.000000  0   -1509628.882    952618.522  -6660153.391
10 0 59839  65742.000000  0    -603338.958    929387.338  -6805685.795
10 0 59839  65862.000000  0     312712.796    874119.702  -6832544.430
10 0 59839  65982.000000  0    1222113.313    787746.192  -6740266.219
10 0 59839  66102.000000  0    2108583.945    672018.234  -6530437.229
10 0 59839  66222.000000  0    2956265.959    529474.476  -6206667.951
10 0 59839  66342.000000  0    3749999.981    363389.778  -5774537.398
10 0 59839  66462.000000  0    4475594.426    177706.083  -5241506.087
10 0 59839  66582.000000  0    5120080.814    -23052.255  -4616799.326
10 0 59839  66702.000000  0    5671952.359   -233878.159  -3911258.665
10 0 59839  66822.000000  0    6121378.143   -449394.924  -3137162.869
10 0 59839  66942.000000  0    6460389.736   -663980.518  -2308021.859
10 0 59839  67062.000000  0    6683035.871   -871900.511  -1438344.321
10 0 59839  67182.000000  0    6785499.076  -1067445.843   -543382.997
10 0 59839  67302.000000  0    6766171.345  -1245072.665    361136.508
10 0 59839  67422.000000  0    6625686.687  -1399540.617   1259299.001
10 0 59839  67542.000000  0    6366907.988  -1526046.349   2135288.114
10 0 59839  67662.000000  0    5994869.335  -1620348.063   2973674.612
10 0 59839  67782.000000  0    5516673.190  -1678877.253   3759696.222
10 0 59839  67902.000000  0    4941347.341  -1698836.669   4479522.946
10 0 59839  68022.000000  0    4279665.241  -1678280.397   5120502.707
10 0 59839  68142.000000  0    3543935.562  -1616174.310   5671383.737
10 0 59839  68262.000000  0    2747763.883  -1512436.894   6122510.037
10 0 59839  68382.000000  0    1905793.613  -1367959.169   6465984.862
10 0 59839  68502.000000  0    1033431.970  -1184603.878   6695803.540
10 0 59839  68622.000000  0     146564.463   -965182.864   6807952.837
10 0 59839  68742.000000  0    -738735.287   -713413.527   6800475.553
10 0 59839  68862.000000  0   -1606495.643   -433855.846   6673501.710
10 0 59839  68982.000000  0   -2441133.644   -131830.049   6429246.363
10 0 59839  69102.000000  0   -3227733.922    186683.723   6071974.166
10 0 59839  69222.000000  0   -3952316.780    515162.068   5607930.515
10 0 59839  69342.000000  0   -4602091.101    846669.299   5045238.404
10 0 59839  69462.000000  0   -5165686.635   1174000.899   4393762.212
10 0 59839  69582.000000  0   -5633361.459   1489836.917   3664938.954
10 0 59839  69702.000000  0   -5997178.794   1786901.607   2871579.918
10 0 59839  69822.000000  0   -6251150.652   2058126.066   2027645.914
10 0 59839  69942.000000  0   -6391344.897   2296809.994   1147999.142
10 0 59839  70062.000000  0   -6415951.726   2496779.063    248134.963
10 0 59839  70182.000000  0   -6325306.443   2652532.585   -656099.454
10 0 59839  70302.000000  0   -6121869.107   2759378.008  -1548793.227
10 0 59839  70422.000000  0   -5810161.525   2813549.475  -2414260.242
10 0 59839  70542.000000  0   -5396662.375   2812307.137  -3237322.852
10 0 59839  70662.000000  0   -4889663.774   2754013.690  -4003582.113
10 0 59839  70782.000000  0   -4299094.973   2638187.794  -4699669.821
10 0 59839  70902.000000  0   -3636317.432   2465533.066  -5313477.546
10 0 59839  71022.000000  0   -2913897.763   2237943.095  -5834358.583
10 0 59839  71142.000000  0   -2145364.772   1958483.047  -6253302.780
10 0 59839  71262.000000  0   -1344952.413   1631347.446  -6563081.782
10 0 59839  71382.000000  0    -527336.802   1261795.735  -6758361.175
10 0 59839  71502.000000  0     292628.538    856067.332  -6835782.347
10 0 59839  71622.000000  0    1100175.162    421278.176  -6794014.215
10 0 59839  71742.000000  0    1880880.434    -34701.532  -6633775.376
10 0 59839  71862.000000  0    2620919.267   -503386.400  -6357821.875
10 0 59839  71982.000000  0    3307304.499   -975829.208  -5970905.566
10 0 59839  72102.000000  0    3928112.575  -1442786.734  -5479699.822
10 0 59839  72222.000000  0    4472691.730  -1894896.169  -4892696.423
10 0 59839  72342.000000  0    4931849.990  -2322860.667  -4220070.061
10 0 59839  72462.000000  0    5298017.423  -2717638.653  -3473512.361
10 0 59839  72582.000000  0    5565380.580  -3070633.581  -2666037.201
10 0 59839  72702.000000  0    5729985.047  -3373879.987  -1811758.333
10 0 59839  72822.000000  0    5789802.217  -3620221.125   -925643.961
10 0 59839  72942.000000  0    5744759.244  -3803474.522    -23252.188
10 0 59839  73062.000000  0    5596729.661  -3918580.035    879547.724
10 0 59839  73182.000000  0    5349484.978  -3961727.822   1766862.562
10 0 59839  73302.000000  0    5008606.592  -3930460.112   2623065.138
10 0 59839  73422.000000  0    4581360.937  -3823744.586   3433077.232
10 0 59839  73542.000000  0    4076543.088  -3642018.920   4182641.244
10 0 59839  73662.000000  0    3504291.889  -3387205.856   4858575.840
10 0 59839  73782.000000  0    2875879.180  -3062696.926   5449009.360
10 0 59839  73902.000000  0    2203482.173  -2673305.900   5943586.263
10 0 59839  74022.000000  0    1499942.003  -2225194.190   6333644.735
10 0 59839  74142.000000  0     778514.665  -1725770.180   6612362.292
10 0 59839  74262.000000  0      52619.193  -1183563.906   6774869.121
10 0 59839  74382.000000  0    -664412.178   -608079.385   6818327.761
10 0 59839  74502.000000  0   -1359577.859     -9627.422   6741978.890
10 0 59839  74622.000000  0   -2020441.694    600858.743   6547153.836
10 0 59839  74742.000000  0   -2635354.852   1212022.484   6237252.963
10 0 59839  74862.000000  0   -3193661.779   1812294.067   5817690.211
10 0 59839  74982.000000  0   -3685887.272   2390109.301   5295804.873
10 0 59839  75102.000000  0   -4103901.983   2934133.764   4680739.645
10 0 59839  75222.000000  0   -4441062.198   3433487.443   3983285.587
10 0 59839  75342.000000  0   -4692321.769   3877965.017   3215696.349
10 0 59839  75462.000000  0   -4854312.250   4258247.684   2391473.955
10 0 59839  75582.000000  0   -4925389.980   4566102.460   1525130.099
10 0 59839  75702.000000  0   -4905647.964   4794562.387    631925.195
10 0 59839  75822.000000  0   -4796892.608   4938081.488   -272407.460
10 0 59839  75942.000000  0   -4602586.790   4992663.478  -1171947.204
10 0 59839  76062.000000  0   -4327757.092   4955959.396  -2050877.144
10 0 59839  76182.000000  0   -3978869.547   4827330.516  -2893769.898
99
